CUTE-1 (CO-55)          
1 27844U 03031E   26195.57423980  .00000140  00000+0  79585-4 0  9995
2 27844  98.6742 203.7891 0010828 104.2879 255.9503 14.24351310195573
CUBESAT XI-IV (CO-57)   
1 27848U 03031J   26195.57646244  .00000117  00000+0  70501-4 0  9992
2 27848  98.6774 203.4819 0010527 121.1058 239.1154 14.23634354195276
CUBESAT XI-V            
1 28895U 05043F   26195.37665838  .00000686  00000+0  11575-3 0  9994
2 28895  98.3013 351.5747 0015230 117.6296 242.6459 14.72701135105754
CUTE-1.7+APD II (CO-65) 
1 32785U 08021C   26195.82332272  .00002941  00000+0  18661-3 0  9998
2 32785  97.8291 177.8241 0007039 300.9079  59.1457 15.09699061989362
CANX-2                  
1 32790U 08021H   26195.86704471  .00001637  00000+0  11738-3 0  9991
2 32790  97.8657 176.1890 0008726 319.4656  40.5919 15.05805228988979
SEEDS II (CO-66)        
1 32791U 08021J   26195.54652954  .00010410  00000+0  32244-3 0  9999
2 32791  97.7520 194.7703 0002981 157.5049 202.6324 15.33652134991489
SWISSCUBE               
1 35932U 09051B   26195.74040392  .00000468  00000+0  10206-3 0  9998
2 35932  98.4008 104.1063 0007823 120.2894 239.9082 14.62530263893188
BEESAT-1                
1 35933U 09051C   26195.69579757  .00000389  00000+0  87927-4 0  9992
2 35933  98.3936 103.6385 0006093 131.1262 229.0465 14.61761410893204
ITUPSAT1                
1 35935U 09051E   26195.71080867  .00000360  00000+0  84350-4 0  9992
2 35935  98.4019 102.8162 0008055 144.4895 215.6843 14.60478385892757
TISAT 1                 
1 36799U 10035E   26195.80674390  .00011961  00000+0  38103-3 0  9998
2 36799  98.0714 144.8302 0004489 120.8068 239.3614 15.32722087871930
STRAND-1                
1 39090U 13009E   26195.48684837  .00000131  00000+0  58407-4 0  9997
2 39090  98.3933  15.0510 0009374 143.0599 217.1235 14.37178635700984
BRITE-AUSTRIA           
1 39091U 13009F   26195.44191914  .00000082  00000+0  42362-4 0  9991
2 39091  98.4007  14.2048 0010722 152.8336 207.3414 14.36552341700968
NEE-01 PEGASO           
1 39151U 13018B   26195.32863187  .00001104  00000+0  10978-3 0  9996
2 39151  98.1252 340.3824 0013633  76.9613 283.3127 14.93786198714756
POPACS 2                
1 39269U 13055E   26195.48021384  .00012593 -92452-6  20479-3 0  9990
2 39269  80.9920 112.9412 0415023 106.1788 258.5512 14.91996677667281
POPACS 3                
1 39270U 13055F   26195.73674812  .00008356  00000+0  19836-3 0  9997
2 39270  80.9987 199.3020 0548836 346.0677  12.5866 14.56653048642568
ZACUBE-1 (TSHEPISOSAT)  
1 39417U 13066B   26195.86804456  .00001239  00000+0  99204-4 0  9996
2 39417  97.8008 158.3415 0044011 156.2520 204.0748 15.01327872684881
WNISAT-1                
1 39423U 13066H   26195.38669252  .00000616  00000+0  11981-3 0  9996
2 39423  97.7233 342.6169 0163836 145.8483 215.3389 14.58118850670695
TRITON-1                
1 39427U 13066M   26195.78018980  .00001318  00000+0  16217-3 0  9997
2 39427  97.8229 104.9574 0090590 143.4488 217.2954 14.81795237678175
GOMX-1                  
1 39430U 13066Q   26195.83077860  .00000789  00000+0  12511-3 0  9993
2 39430  97.6469  34.5491 0128297 349.3818  10.4684 14.69542594673977
CUBEBUG-2 (LO-74)       
1 39440U 13066AA  26195.86030594  .00001977  00000+0  18584-3 0  9996
2 39440  97.8912 144.9614 0055738 296.4824  63.0685 14.93965331681120
NEE-02 KRYSAOR          
1 39441U 13066AB  26195.80413296  .00001157  00000+0  13153-3 0  9992
2 39441  97.8897 134.8246 0065440 340.5806  19.2917 14.86737925680302
FUNCUBE-1 (AO-73)       
1 39444U 13066AE  26195.82872940  .00003435  00000+0  21317-3 0  9994
2 39444  97.8288 167.8602 0038005 108.8276 251.7080 15.09814970683831
UWE-3                   
1 39446U 13066AG  26195.81898913  .00001907  00000+0  16664-3 0  9994
2 39446  97.8706 152.0848 0047493 225.7627 133.9691 14.97197060681710
BRITE-CA1 (TORONTO)     
1 40020U 14033L   26195.82684235  .00000521  00000+0  85838-4 0  9991
2 40020  97.9771 324.2506 0078409 187.4375 172.5676 14.72722139646281
DUCHIFAT-1              
1 40021U 14033M   26195.66063348  .00097037  00000+0  77166-3 0  9992
2 40021  98.0414 258.8180 0002763 248.3674 111.7293 15.70920437660058
NANOSATC-BR1            
1 40024U 14033Q   26195.63977463  .00009918  00000+0  32052-3 0  9990
2 40024  98.0707 230.4762 0005293  97.6147 262.5694 15.32316226658183
QB50P1                  
1 40025U 14033R   26195.56334166  .00004361  00000+0  21396-3 0  9996
2 40025  98.0961 208.6368 0010316 126.4314 233.7871 15.18660627657181
QB50P2                  
1 40032U 14033Y   26195.50393392  .00003533  00000+0  19037-3 0  9993
2 40032  98.0760 194.0927 0009342  85.5997 274.6301 15.15500776656809
PERSEUS-M2              
1 40037U 14033AD  26195.82921389  .00001276  00000+0  12039-3 0  9993
2 40037  97.9978 146.9358 0010786 200.0611 160.0187 14.95591884654915
PERSEUS-M1              
1 40039U 14033AF  26195.79995825  .00001228  00000+0  11564-3 0  9996
2 40039  97.9653 140.3879 0010885 197.5999 162.4845 14.95714925654765
